{"type": "FeatureCollection", "features": [ {"type": "Feature", "properties": {"norad_id": 46444, "name": "FENGYUN 1C DEB", "group": "fengyun-1c-debris", "lat": -1.546672533790026, "lon": 165.4651126924077, "alt_km": 748.08607309335, "timestamp": "2025-12-09T14:52:26.452406+00:00", "meta": {"OBJECT_NAME": "FENGYUN 1C DEB", "OBJECT_ID": "1999-025EYZ", "EPOCH": "2025-12-08T20:05:19.430016", "MEAN_MOTION": 14.27142422, "ECCENTRICITY": 0.00842044, "INCLINATION": 98.5131, "RA_OF_ASC_NODE": 344.9349, "ARG_OF_PERICENTER": 162.2551, "MEAN_ANOMALY": 319.7368, "EPHEMERIS_TYPE": 0, "CLASSIFICATION_TYPE": "U", "NORAD_CAT_ID": 46444, "ELEMENT_SET_NO": 999, "REV_AT_EPOCH": 62526, "BSTAR": 0.00088543069, "MEAN_MOTION_DOT": 2.201e-05, "MEAN_MOTION_DDOT": 0}, "tle": {"line1": "1 46444U 99025EYZ 25342.83703044  .00002201  00000+0  88543-3 0  9997", "line2": "2 46444  98.5131 344.9349 0084204 162.2551 319.7368 14.27142422625264"}}, "geometry": {"type": "Point", "coordinates": [165.4651126924077, -1.546672533790026]}}, {"type": "Feature", "properties": {"norad_id": 46449, "name": "FENGYUN 1C DEB", "group": "fengyun-1c-debris", "lat": 65.9714473839609, "lon": -1.8761578831520973, "alt_km": 944.5525978607338, "timestamp": "2025-12-09T14:52:26.452417+00:00", "meta": {"OBJECT_NAME": "FENGYUN 1C DEB", "OBJECT_ID": "1999-025EZE", "EPOCH": "2025-11-27T19:57:02.428704", "MEAN_MOTION": 14.19021773, "ECCENTRICITY": 0.02029501, "INCLINATION": 98.6463, "RA_OF_ASC_NODE": 6.5721, "ARG_OF_PERICENTER": 314.0231, "MEAN_ANOMALY": 44.4375, "EPHEMERIS_TYPE": 0, "CLASSIFICATION_TYPE": "U", "NORAD_CAT_ID": 46449, "ELEMENT_SET_NO": 999, "REV_AT_EPOCH": 57425, "BSTAR": 0.00050383916, "MEAN_MOTION_DOT": 1.244e-05, "MEAN_MOTION_DDOT": 0}, "tle": {"line1": "1 46449U 99025EZE 25331.83127811  .00001244  00000+0  50384-3 0  9990", "line2": "2 46449  98.6463   6.5721 0202950 314.0231  44.4375 14.19021773574253"}}, "geometry": {"type": "Point", "coordinates": [-1.8761578831520973, 65.9714473839609]}}, {"type": "Feature", "properties": {"norad_id": 46450, "name": "FENGYUN 1C DEB", "group": "fengyun-1c-debris", "lat": 38.87497315385935, "lon": -165.96194762651177, "alt_km": 763.9567627384649, "timestamp": "2025-12-09T14:52:26.452427+00:00", "meta": {"OBJECT_NAME": "FENGYUN 1C DEB", "OBJECT_ID": "1999-025EZF", "EPOCH": "2025-12-05T08:02:04.531488", "MEAN_MOTION": 14.03487507, "ECCENTRICITY": 0.0182173, "INCLINATION": 98.079, "RA_OF_ASC_NODE": 196.8025, "ARG_OF_PERICENTER": 82.0832, "MEAN_ANOMALY": 280.097, "EPHEMERIS_TYPE": 0, "CLASSIFICATION_TYPE": "U", "NORAD_CAT_ID": 46450, "ELEMENT_SET_NO": 999, "REV_AT_EPOCH": 61015, "BSTAR": 0.0037253219, "MEAN_MOTION_DOT": 6.729e-05, "MEAN_MOTION_DDOT": 0}, "tle": {"line1": "1 46450U 99025EZF 25339.33477467  .00006729  00000+0  37253-2 0  9992", "line2": "2 46450  98.0790 196.8025 0182173  82.0832 280.0970 14.03487507610158"}}, "geometry": {"type": "Point", "coordinates": [-165.96194762651177, 38.87497315385935]}}, {"type": "Feature", "properties": {"norad_id": 46451, "name": "FENGYUN 1C DEB", "group": "fengyun-1c-debris", "lat": -1.4151075039086378, "lon": -177.13451454777405, "alt_km": 707.3412468704391, "timestamp": "2025-12-09T14:52:26.452437+00:00", "meta": {"OBJECT_NAME": "FENGYUN 1C DEB", "OBJECT_ID": "1999-025EZG", "EPOCH": "2025-12-08T13:23:34.656000", "MEAN_MOTION": 14.20306867, "ECCENTRICITY": 0.0171376, "INCLINATION": 98.1538, "RA_OF_ASC_NODE": 2.0888, "ARG_OF_PERICENTER": 198.1498, "MEAN_ANOMALY": 318.0563, "EPHEMERIS_TYPE": 0, "CLASSIFICATION_TYPE": "U", "NORAD_CAT_ID": 46451, "ELEMENT_SET_NO": 999, "REV_AT_EPOCH": 56947, "BSTAR": 0.0036852, "MEAN_MOTION_DOT": 9.108e-05, "MEAN_MOTION_DDOT": 0}, "tle": {"line1": "1 46451U 99025EZG 25342.55804000  .00009108  00000+0  36852-2 0  9996", "line2": "2 46451  98.1538   2.0888 0171376 198.1498 318.0563 14.20306867569471"}}, "geometry": {"type": "Point", "coordinates": [-177.13451454777405, -1.4151075039086378]}}, {"type": "Feature", "properties": {"norad_id": 46468, "name": "FENGYUN 1C DEB", "group": "fengyun-1c-debris", "lat": 12.096481078679481, "lon": 69.43924786080804, "alt_km": 833.1552270538014, "timestamp": "2025-12-09T14:52:26.452448+00:00", "meta": {"OBJECT_NAME": "FENGYUN 1C DEB", "OBJECT_ID": "1999-025EZK", "EPOCH": "2025-12-05T11:40:56.057088", "MEAN_MOTION": 14.24624846, "ECCENTRICITY": 0.00454022, "INCLINATION": 98.8836, "RA_OF_ASC_NODE": 67.1806, "ARG_OF_PERICENTER": 250.6717, "MEAN_ANOMALY": 176.0596, "EPHEMERIS_TYPE": 0, "CLASSIFICATION_TYPE": "U", "NORAD_CAT_ID": 46468, "ELEMENT_SET_NO": 999, "REV_AT_EPOCH": 73713, "BSTAR": 0.0036232179, "MEAN_MOTION_DOT": 8.473e-05, "MEAN_MOTION_DDOT": 0}, "tle": {"line1": "1 46468U 99025EZK 25339.48675992  .00008473  00000+0  36232-2 0  9994", "line2": "2 46468  98.8836  67.1806 0045402 250.6717 176.0596 14.24624846737139"}}, "geometry": {"type": "Point", "coordinates": [69.43924786080804, 12.096481078679481]}}, {"type": "Feature", "properties": {"norad_id": 46986, "name": "FENGYUN 1C DEB", "group": "fengyun-1c-debris", "lat": -59.94896355694946, "lon": 21.940159929168598, "alt_km": 725.1385162032193, "timestamp": "2025-12-09T14:52:26.452458+00:00", "meta": {"OBJECT_NAME": "FENGYUN 1C DEB", "OBJECT_ID": "1999-025EZL", "EPOCH": "2025-12-01T08:01:27.390720", "MEAN_MOTION": 14.47112781, "ECCENTRICITY": 0.01038428, "INCLINATION": 98.2357, "RA_OF_ASC_NODE": 359.3803, "ARG_OF_PERICENTER": 247.048, "MEAN_ANOMALY": 111.973, "EPHEMERIS_TYPE": 0, "CLASSIFICATION_TYPE": "U", "NORAD_CAT_ID": 46986, "ELEMENT_SET_NO": 999, "REV_AT_EPOCH": 63235, "BSTAR": 0.00048896767, "MEAN_MOTION_DOT": 1.859e-05, "MEAN_MOTION_DDOT": 0}, "tle": {"line1": "1 46986U 99025EZL 25335.33434480  .00001859  00000+0  48897-3 0  9996", "line2": "2 46986  98.2357 359.3803 0103842 247.0480 111.9730 14.47112781632350"}}, "geometry": {"type": "Point", "coordinates": [21.940159929168598, -59.94896355694946]}}, {"type": "Feature", "properties": {"norad_id": 46989, "name": "FENGYUN 1C DEB", "group": "fengyun-1c-debris", "lat": 68.08873454382699, "lon": 120.74898970086758, "alt_km": 938.7343853747207, "timestamp": "2025-12-09T14:52:26.452468+00:00", "meta": {"OBJECT_NAME": "FENGYUN 1C DEB", "OBJECT_ID": "1999-025EZP", "EPOCH": "2025-12-01T09:56:49.877952", "MEAN_MOTION": 13.7915922, "ECCENTRICITY": 0.02374727, "INCLINATION": 99.5096, "RA_OF_ASC_NODE": 137.1371, "ARG_OF_PERICENTER": 7.3744, "MEAN_ANOMALY": 21.4435, "EPHEMERIS_TYPE": 0, "CLASSIFICATION_TYPE": "U", "NORAD_CAT_ID": 46989, "ELEMENT_SET_NO": 999, "REV_AT_EPOCH": 70886, "BSTAR": 0.0040160764, "MEAN_MOTION_DOT": 5.034e-05, "MEAN_MOTION_DDOT": 0}, "tle": {"line1": "1 46989U 99025EZP 25335.41446618  .00005034  00000+0  40161-2 0  9998", "line2": "2 46989  99.5096 137.1371 0237472   7.3744  21.4435 13.79159220708866"}}, "geometry": {"type": "Point", "coordinates": [120.74898970086758, 68.08873454382699]}}, {"type": "Feature", "properties": {"norad_id": 46990, "name": "FENGYUN 1C DEB", "group": "fengyun-1c-debris", "lat": 54.398206896239174, "lon": 176.26539114902286, "alt_km": 557.3469359633327, "timestamp": "2025-12-09T14:52:26.452479+00:00", "meta": {"OBJECT_NAME": "FENGYUN 1C DEB", "OBJECT_ID": "1999-025EZQ", "EPOCH": "2025-12-06T08:10:02.409024", "MEAN_MOTION": 14.23662061, "ECCENTRICITY": 0.03583683, "INCLINATION": 98.2315, "RA_OF_ASC_NODE": 184.8522, "ARG_OF_PERICENTER": 79.2421, "MEAN_ANOMALY": 98.3113, "EPHEMERIS_TYPE": 0, "CLASSIFICATION_TYPE": "U", "NORAD_CAT_ID": 46990, "ELEMENT_SET_NO": 999, "REV_AT_EPOCH": 8438, "BSTAR": 0.0037020871, "MEAN_MOTION_DOT": 0.00016467, "MEAN_MOTION_DDOT": 0}, "tle": {"line1": "1 46990U 99025EZQ 25340.34030566  .00016467  00000+0  37021-2 0  9992", "line2": "2 46990  98.2315 184.8522 0358368  79.2421  98.3113 14.23662061 84385"}}, "geometry": {"type": "Point", "coordinates": [176.26539114902286, 54.398206896239174]}}, {"type": "Feature", "properties": {"norad_id": 46992, "name": "FENGYUN 1C DEB", "group": "fengyun-1c-debris", "lat": 19.002121781895564, "lon": -32.633318505841714, "alt_km": 936.7872736920108, "timestamp": "2025-12-09T14:52:26.452489+00:00", "meta": {"OBJECT_NAME": "FENGYUN 1C DEB", "OBJECT_ID": "1999-025EZS", "EPOCH": "2025-12-09T06:12:33.154848", "MEAN_MOTION": 14.00691719, "ECCENTRICITY": 0.00721028, "INCLINATION": 98.8975, "RA_OF_ASC_NODE": 330.1075, "ARG_OF_PERICENTER": 170.257, "MEAN_ANOMALY": 190.0013, "EPHEMERIS_TYPE": 0, "CLASSIFICATION_TYPE": "U", "NORAD_CAT_ID": 46992, "ELEMENT_SET_NO": 999, "REV_AT_EPOCH": 60908, "BSTAR": 0.0006013956, "MEAN_MOTION_DOT": 8.73e-06, "MEAN_MOTION_DDOT": 0}, "tle": {"line1": "1 46992U 99025EZS 25343.25871707  .00000873  00000+0  60140-3 0  9990", "line2": "2 46992  98.8975 330.1075 0072102 170.2570 190.0013 14.00691719609086"}}, "geometry": {"type": "Point", "coordinates": [-32.633318505841714, 19.002121781895564]}}, {"type": "Feature", "properties": {"norad_id": 46993, "name": "FENGYUN 1C DEB", "group": "fengyun-1c-debris", "lat": -34.193010208274394, "lon": -83.62579439331296, "alt_km": 1014.3940820160497, "timestamp": "2025-12-09T14:52:26.452499+00:00", "meta": {"OBJECT_NAME": "FENGYUN 1C DEB", "OBJECT_ID": "1999-025EZT", "EPOCH": "2025-12-07T12:59:14.154720", "MEAN_MOTION": 13.69140958, "ECCENTRICITY": 0.02624793, "INCLINATION": 98.7232, "RA_OF_ASC_NODE": 100.4775, "ARG_OF_PERICENTER": 313.2221, "MEAN_ANOMALY": 104.529, "EPHEMERIS_TYPE": 0, "CLASSIFICATION_TYPE": "U", "NORAD_CAT_ID": 46993, "ELEMENT_SET_NO": 999, "REV_AT_EPOCH": 60186, "BSTAR": 0.00065143345, "MEAN_MOTION_DOT": 6.78e-06, "MEAN_MOTION_DDOT": 0}, "tle": {"line1": "1 46993U 99025EZT 25341.54113605  .00000678  00000+0  65143-3 0  9998", "line2": "2 46993  98.7232 100.4775 0262479 313.2221 104.5290 13.69140958601860"}}, "geometry": {"type": "Point", "coordinates": [-83.62579439331296, -34.193010208274394]}}]}